{
"type": "FeatureCollection",
"name": "sql_statement",
"crs": { "type": "name", "properties": { "name": "urn:ogc:def:crs:OGC:1.3:CRS84" } },
"features": [
{ "type": "Feature", "properties": { "amenity": "cafe", "name": "1st Cup Cafe", "addr:street": null, "addr:housenumber": null, "cuisine": "african;tea;coffee_shop", "addr:postcode": null, "addr:city": null, "website": null, "addr:state": null, "opening_hours": null, "phone": null, "internet_access": null, "outdoor_seating": null, "smoking": null, "internet_access:fee": null, "wheelchair": null, "brand": null, "brand:wikidata": null, "brand:wikipedia": null, "wifi": null, "description": null, "level": null, "drive_through": null, "operator": null, "addr:country": null, "alt_name": null, "atm": null, "email": null, "takeaway": null, "toilets:wheelchair": null }, "geometry": { "type": "Point", "coordinates": [ -93.2368707, 44.951798 ] } },
{ "type": "Feature", "properties": { "amenity": "cafe", "name": "Anelace Coffee", "addr:street": "Northeast Central Avenue", "addr:housenumber": "2402", "cuisine": null, "addr:postcode": "55418", "addr:city": "Minneapolis", "website": "https:\/\/www.anelacecoffee.com\/", "addr:state": "MN", "opening_hours": "Mo-Sa 07:00-19:00; Su 08:00-19:00", "phone": "+1 612 236 4870", "internet_access": "wifi", "outdoor_seating": null, "smoking": null, "internet_access:fee": "no", "wheelchair": null, "brand": null, "brand:wikidata": null, "brand:wikipedia": null, "wifi": null, "description": null, "level": null, "drive_through": null, "operator": null, "addr:country": null, "alt_name": null, "atm": null, "email": null, "takeaway": null, "toilets:wheelchair": null }, "geometry": { "type": "Point", "coordinates": [ -93.2475823, 45.0124143 ] } },
{ "type": "Feature", "properties": { "amenity": "cafe", "name": "Aster Cafe", "addr:street": null, "addr:housenumber": null, "cuisine": null, "addr:postcode": null, "addr:city": null, "website": null, "addr:state": null, "opening_hours": null, "phone": null, "internet_access": null, "outdoor_seating": null, "smoking": null, "internet_access:fee": null, "wheelchair": null, "brand": null, "brand:wikidata": null, "brand:wikipedia": null, "wifi": null, "description": null, "level": null, "drive_through": null, "operator": null, "addr:country": null, "alt_name": null, "atm": null, "email": null, "takeaway": null, "toilets:wheelchair": null }, "geometry": { "type": "Point", "coordinates": [ -93.2550643, 44.9844954 ] } },
{ "type": "Feature", "properties": { "amenity": "cafe", "name": "Bambini's Coffee", "addr:street": "Riverside Avenue", "addr:housenumber": "2450", "cuisine": "coffee_shop;tea;cafe", "addr:postcode": "55454", "addr:city": "Minneapolis", "website": null, "addr:state": "MN", "opening_hours": "Mo-Fr 06:30-19:00; Sa-Su 07:00-14:00", "phone": null, "internet_access": null, "outdoor_seating": "no", "smoking": null, "internet_access:fee": null, "wheelchair": null, "brand": null, "brand:wikidata": null, "brand:wikipedia": null, "wifi": null, "description": null, "level": null, "drive_through": null, "operator": null, "addr:country": null, "alt_name": null, "atm": null, "email": null, "takeaway": null, "toilets:wheelchair": null }, "geometry": { "type": "Point", "coordinates": [ -93.2370725, 44.9668321 ] } },
{ "type": "Feature", "properties": { "amenity": "cafe", "name": "Bambu Dessert Drinks", "addr:street": "Southeast Huron Boulevard", "addr:housenumber": "313", "cuisine": null, "addr:postcode": "55414", "addr:city": "Minneapolis", "website": "drinkbambu.com", "addr:state": "MN", "opening_hours": null, "phone": "612-886-3662", "internet_access": null, "outdoor_seating": null, "smoking": null, "internet_access:fee": null, "wheelchair": null, "brand": null, "brand:wikidata": null, "brand:wikipedia": null, "wifi": null, "description": null, "level": null, "drive_through": null, "operator": null, "addr:country": null, "alt_name": null, "atm": null, "email": null, "takeaway": null, "toilets:wheelchair": null }, "geometry": { "type": "Point", "coordinates": [ -93.2233595, 44.9732769 ] } },
{ "type": "Feature", "properties": { "amenity": "cafe", "name": "Bambu Dessert & Drinks", "addr:street": "Nicollet Avenue South", "addr:housenumber": "2745", "cuisine": "vietnamese", "addr:postcode": "55408", "addr:city": "Minneapolis", "website": "https:\/\/www.drinkbambu.com\/", "addr:state": "MN", "opening_hours": null, "phone": "612-787-6166", "internet_access": null, "outdoor_seating": null, "smoking": null, "internet_access:fee": null, "wheelchair": null, "brand": null, "brand:wikidata": null, "brand:wikipedia": null, "wifi": null, "description": null, "level": null, "drive_through": null, "operator": null, "addr:country": null, "alt_name": null, "atm": null, "email": null, "takeaway": null, "toilets:wheelchair": null }, "geometry": { "type": "Point", "coordinates": [ -93.2777259, 44.9522806 ] } },
{ "type": "Feature", "properties": { "amenity": "cafe", "name": "Blackeye Roasting Co", "addr:street": "Chicago Avenue South", "addr:housenumber": "3740", "cuisine": "coffee_shop", "addr:postcode": "55407", "addr:city": null, "website": "https:\/\/www.blackeyeroasting.co\/", "addr:state": null, "opening_hours": null, "phone": null, "internet_access": null, "outdoor_seating": null, "smoking": null, "internet_access:fee": null, "wheelchair": null, "brand": null, "brand:wikidata": null, "brand:wikipedia": null, "wifi": null, "description": null, "level": null, "drive_through": null, "operator": null, "addr:country": null, "alt_name": null, "atm": null, "email": null, "takeaway": null, "toilets:wheelchair": null }, "geometry": { "type": "Point", "coordinates": [ -93.2627144, 44.9346044 ] } },
{ "type": "Feature", "properties": { "amenity": "cafe", "name": "Blue Moon Coffee Cafe", "addr:street": null, "addr:housenumber": null, "cuisine": null, "addr:postcode": null, "addr:city": null, "website": null, "addr:state": null, "opening_hours": null, "phone": null, "internet_access": null, "outdoor_seating": null, "smoking": null, "internet_access:fee": null, "wheelchair": null, "brand": null, "brand:wikidata": null, "brand:wikipedia": null, "wifi": null, "description": null, "level": null, "drive_through": null, "operator": null, "addr:country": null, "alt_name": null, "atm": null, "email": null, "takeaway": null, "toilets:wheelchair": null }, "geometry": { "type": "Point", "coordinates": [ -93.2167458, 44.9485384 ] } },
{ "type": "Feature", "properties": { "amenity": "cafe", "name": "Bluestem Bar and Table", "addr:street": "Lyndale Avenue South", "addr:housenumber": "2610", "cuisine": null, "addr:postcode": "55405", "addr:city": "Minneapolis", "website": "bluestembarminneapolis.com", "addr:state": "MN", "opening_hours": "Su-Th 08:00-22:00; Fr,Sa 08:00-23:00", "phone": null, "internet_access": null, "outdoor_seating": null, "smoking": null, "internet_access:fee": null, "wheelchair": null, "brand": null, "brand:wikidata": null, "brand:wikipedia": null, "wifi": null, "description": "Chic eatery\/bar featuring farm-fresh fare & specialty cocktails in warm, contemporary surrounds.", "level": null, "drive_through": null, "operator": null, "addr:country": null, "alt_name": null, "atm": null, "email": null, "takeaway": null, "toilets:wheelchair": null }, "geometry": { "type": "Point", "coordinates": [ -93.288288, 44.954916 ] } },
{ "type": "Feature", "properties": { "amenity": "cafe", "name": "Boiler Room", "addr:street": "3rd Avenue South", "addr:housenumber": "1830", "cuisine": "coffee_shop", "addr:postcode": "55404", "addr:city": "Minneapolis", "website": "http:\/\/boilerroommpls.com\/", "addr:state": null, "opening_hours": null, "phone": null, "internet_access": null, "outdoor_seating": null, "smoking": null, "internet_access:fee": null, "wheelchair": null, "brand": null, "brand:wikidata": null, "brand:wikipedia": null, "wifi": null, "description": null, "level": null, "drive_through": null, "operator": null, "addr:country": null, "alt_name": null, "atm": null, "email": null, "takeaway": null, "toilets:wheelchair": null }, "geometry": { "type": "Point", "coordinates": [ -93.2729264, 44.9644461 ] } },
{ "type": "Feature", "properties": { "amenity": "cafe", "name": "Bordertown Coffee", "addr:street": "Southeast 16th Avenue", "addr:housenumber": "315", "cuisine": "coffee_shop", "addr:postcode": "55414", "addr:city": "Minneapolis", "website": "http:\/\/bordertowncoffee.com\/", "addr:state": "MN", "opening_hours": "Mo-Fr 07:00-17:00", "phone": null, "internet_access": null, "outdoor_seating": null, "smoking": null, "internet_access:fee": null, "wheelchair": "no", "brand": null, "brand:wikidata": null, "brand:wikipedia": null, "wifi": null, "description": null, "level": null, "drive_through": null, "operator": null, "addr:country": null, "alt_name": null, "atm": null, "email": null, "takeaway": null, "toilets:wheelchair": null }, "geometry": { "type": "Point", "coordinates": [ -93.233684, 44.9790516 ] } },
{ "type": "Feature", "properties": { "amenity": "cafe", "name": "Botany Coffee", "addr:street": null, "addr:housenumber": null, "cuisine": "coffee_shop", "addr:postcode": null, "addr:city": null, "website": null, "addr:state": null, "opening_hours": null, "phone": null, "internet_access": null, "outdoor_seating": null, "smoking": null, "internet_access:fee": null, "wheelchair": null, "brand": null, "brand:wikidata": null, "brand:wikipedia": null, "wifi": null, "description": null, "level": null, "drive_through": null, "operator": null, "addr:country": null, "alt_name": null, "atm": null, "email": null, "takeaway": null, "toilets:wheelchair": null }, "geometry": { "type": "Point", "coordinates": [ -93.2469424, 44.9342195 ] } },
{ "type": "Feature", "properties": { "amenity": "cafe", "name": "Bridges Cafe", "addr:street": "Southeast Harvard Street", "addr:housenumber": "500", "cuisine": null, "addr:postcode": "55455", "addr:city": "Minneapolis", "website": null, "addr:state": "MN", "opening_hours": null, "phone": null, "internet_access": null, "outdoor_seating": "no", "smoking": null, "internet_access:fee": null, "wheelchair": null, "brand": null, "brand:wikidata": null, "brand:wikipedia": null, "wifi": null, "description": null, "level": null, "drive_through": null, "operator": null, "addr:country": null, "alt_name": null, "atm": null, "email": null, "takeaway": null, "toilets:wheelchair": null }, "geometry": { "type": "Point", "coordinates": [ -93.2311658, 44.9709678 ] } },
{ "type": "Feature", "properties": { "amenity": "cafe", "name": "Bruegger's Bagels", "addr:street": "Southeast Washington Avenue", "addr:housenumber": "720", "cuisine": "sandwich;coffee_shop", "addr:postcode": "55414", "addr:city": "Minneapolis", "website": null, "addr:state": "MN", "opening_hours": null, "phone": null, "internet_access": "yes", "outdoor_seating": null, "smoking": "no", "internet_access:fee": null, "wheelchair": null, "brand": null, "brand:wikidata": null, "brand:wikipedia": null, "wifi": null, "description": null, "level": null, "drive_through": null, "operator": null, "addr:country": null, "alt_name": null, "atm": null, "email": null, "takeaway": null, "toilets:wheelchair": null }, "geometry": { "type": "Point", "coordinates": [ -93.2273233, 44.9735294 ] } },
{ "type": "Feature", "properties": { "amenity": "cafe", "name": "Caffetto", "addr:street": "West 22nd Street", "addr:housenumber": "708", "cuisine": "coffee_shop", "addr:postcode": "55405", "addr:city": "Minneapolis", "website": null, "addr:state": "MN", "opening_hours": "Mo-Su 06:30-01:00", "phone": null, "internet_access": "wlan", "outdoor_seating": null, "smoking": "outside", "internet_access:fee": null, "wheelchair": null, "brand": null, "brand:wikidata": null, "brand:wikipedia": null, "wifi": null, "description": null, "level": null, "drive_through": null, "operator": null, "addr:country": null, "alt_name": null, "atm": null, "email": null, "takeaway": null, "toilets:wheelchair": null }, "geometry": { "type": "Point", "coordinates": [ -93.288555, 44.9610412 ] } },
{ "type": "Feature", "properties": { "amenity": "cafe", "name": "Canteen", "addr:street": "Bryant Avenue South", "addr:housenumber": "3255", "cuisine": "coffee_shop", "addr:postcode": "55408", "addr:city": "Minneapolis", "website": null, "addr:state": "MN", "opening_hours": "06:30-23:00", "phone": null, "internet_access": null, "outdoor_seating": null, "smoking": null, "internet_access:fee": null, "wheelchair": null, "brand": null, "brand:wikidata": null, "brand:wikipedia": null, "wifi": null, "description": null, "level": null, "drive_through": null, "operator": null, "addr:country": null, "alt_name": null, "atm": null, "email": null, "takeaway": null, "toilets:wheelchair": null }, "geometry": { "type": "Point", "coordinates": [ -93.2904836, 44.9430573 ] } },
{ "type": "Feature", "properties": { "amenity": "cafe", "name": "Caribou Coffee", "addr:street": "France Avenue South", "addr:housenumber": "4999", "cuisine": null, "addr:postcode": null, "addr:city": null, "website": null, "addr:state": null, "opening_hours": null, "phone": null, "internet_access": null, "outdoor_seating": null, "smoking": null, "internet_access:fee": null, "wheelchair": null, "brand": null, "brand:wikidata": null, "brand:wikipedia": null, "wifi": null, "description": null, "level": null, "drive_through": null, "operator": null, "addr:country": null, "alt_name": null, "atm": null, "email": null, "takeaway": null, "toilets:wheelchair": null }, "geometry": { "type": "Point", "coordinates": [ -93.3288746, 44.9133781 ] } },
{ "type": "Feature", "properties": { "amenity": "cafe", "name": "Caribou Coffee", "addr:street": "Nicollet Avenue South", "addr:housenumber": "4606", "cuisine": "coffee_shop", "addr:postcode": "55409", "addr:city": "Minneapolis", "website": "https:\/\/www.cariboucoffee.com\/", "addr:state": "MN", "opening_hours": null, "phone": "+1-612-825-6361", "internet_access": "wlan", "outdoor_seating": null, "smoking": null, "internet_access:fee": "no", "wheelchair": null, "brand": null, "brand:wikidata": null, "brand:wikipedia": null, "wifi": null, "description": null, "level": null, "drive_through": null, "operator": null, "addr:country": null, "alt_name": null, "atm": null, "email": null, "takeaway": null, "toilets:wheelchair": null }, "geometry": { "type": "Point", "coordinates": [ -93.2784054, 44.9194986 ] } },
{ "type": "Feature", "properties": { "amenity": "cafe", "name": "Caribou Coffee", "addr:street": "South 4th Street", "addr:housenumber": "1925", "cuisine": "coffee_shop", "addr:postcode": "55455", "addr:city": "Minneapolis", "website": "https:\/\/www.cariboucoffee.com\/", "addr:state": "MN", "opening_hours": "Mo-Th 07:00-20:00; Fr 07:00-16:00; Sa 07:00-14:00", "phone": "612-625-8585", "internet_access": null, "outdoor_seating": null, "smoking": null, "internet_access:fee": null, "wheelchair": null, "brand": null, "brand:wikidata": null, "brand:wikipedia": null, "wifi": null, "description": null, "level": "2", "drive_through": null, "operator": null, "addr:country": null, "alt_name": null, "atm": null, "email": null, "takeaway": null, "toilets:wheelchair": null }, "geometry": { "type": "Point", "coordinates": [ -93.2446896, 44.9698287 ] } },
{ "type": "Feature", "properties": { "amenity": "cafe", "name": "Caribou Coffee", "addr:street": "Southeast Washington Avenue", "addr:housenumber": "604", "cuisine": "coffee_shop", "addr:postcode": "55414", "addr:city": "Minneapolis", "website": null, "addr:state": "MN", "opening_hours": null, "phone": null, "internet_access": null, "outdoor_seating": null, "smoking": null, "internet_access:fee": null, "wheelchair": null, "brand": "Caribou Coffee", "brand:wikidata": "Q5039494", "brand:wikipedia": "en:Caribou Coffee", "wifi": null, "description": null, "level": null, "drive_through": null, "operator": null, "addr:country": null, "alt_name": null, "atm": null, "email": null, "takeaway": null, "toilets:wheelchair": null }, "geometry": { "type": "Point", "coordinates": [ -93.2300846, 44.9735229 ] } },
{ "type": "Feature", "properties": { "amenity": "cafe", "name": "Caribou Coffee", "addr:street": "Southeast Washington Avenue", "addr:housenumber": "917", "cuisine": "coffee_shop", "addr:postcode": "55414", "addr:city": "Minneapolis", "website": null, "addr:state": "MN", "opening_hours": null, "phone": "612-331-4121", "internet_access": null, "outdoor_seating": null, "smoking": null, "internet_access:fee": null, "wheelchair": null, "brand": null, "brand:wikidata": null, "brand:wikipedia": null, "wifi": null, "description": null, "level": null, "drive_through": null, "operator": null, "addr:country": null, "alt_name": null, "atm": null, "email": null, "takeaway": null, "toilets:wheelchair": null }, "geometry": { "type": "Point", "coordinates": [ -93.2247345, 44.9741298 ] } },
{ "type": "Feature", "properties": { "amenity": "cafe", "name": "Caribou Coffee", "addr:street": null, "addr:housenumber": null, "cuisine": "coffee", "addr:postcode": null, "addr:city": null, "website": null, "addr:state": null, "opening_hours": null, "phone": null, "internet_access": null, "outdoor_seating": null, "smoking": null, "internet_access:fee": null, "wheelchair": null, "brand": null, "brand:wikidata": null, "brand:wikipedia": null, "wifi": null, "description": null, "level": null, "drive_through": null, "operator": null, "addr:country": null, "alt_name": null, "atm": null, "email": null, "takeaway": null, "toilets:wheelchair": null }, "geometry": { "type": "Point", "coordinates": [ -93.2548667, 44.9872605 ] } },
{ "type": "Feature", "properties": { "amenity": "cafe", "name": "Caribou Coffee", "addr:street": null, "addr:housenumber": null, "cuisine": "coffee_shop", "addr:postcode": null, "addr:city": null, "website": "https:\/\/www.cariboucoffee.com\/", "addr:state": null, "opening_hours": null, "phone": null, "internet_access": "wlan", "outdoor_seating": null, "smoking": null, "internet_access:fee": null, "wheelchair": null, "brand": null, "brand:wikidata": null, "brand:wikipedia": null, "wifi": null, "description": null, "level": null, "drive_through": null, "operator": null, "addr:country": null, "alt_name": null, "atm": null, "email": null, "takeaway": null, "toilets:wheelchair": null }, "geometry": { "type": "Point", "coordinates": [ -93.2609972, 44.9784893 ] } },
{ "type": "Feature", "properties": { "amenity": "cafe", "name": "Caribou Coffee", "addr:street": null, "addr:housenumber": null, "cuisine": "coffee_shop", "addr:postcode": null, "addr:city": null, "website": null, "addr:state": null, "opening_hours": null, "phone": null, "internet_access": null, "outdoor_seating": null, "smoking": null, "internet_access:fee": null, "wheelchair": null, "brand": "Caribou Coffee", "brand:wikidata": "Q5039494", "brand:wikipedia": "en:Caribou Coffee", "wifi": null, "description": null, "level": "1", "drive_through": null, "operator": null, "addr:country": null, "alt_name": null, "atm": null, "email": null, "takeaway": null, "toilets:wheelchair": null }, "geometry": { "type": "Point", "coordinates": [ -93.2708312, 44.9758808 ] } },
{ "type": "Feature", "properties": { "amenity": "cafe", "name": "Caribou Coffee", "addr:street": null, "addr:housenumber": null, "cuisine": "coffee_shop", "addr:postcode": null, "addr:city": null, "website": null, "addr:state": null, "opening_hours": null, "phone": null, "internet_access": null, "outdoor_seating": null, "smoking": null, "internet_access:fee": null, "wheelchair": null, "brand": null, "brand:wikidata": null, "brand:wikipedia": null, "wifi": null, "description": null, "level": null, "drive_through": null, "operator": null, "addr:country": null, "alt_name": null, "atm": null, "email": null, "takeaway": null, "toilets:wheelchair": null }, "geometry": { "type": "Point", "coordinates": [ -93.2941483, 44.9598333 ] } },
{ "type": "Feature", "properties": { "amenity": "cafe", "name": "Caribou Coffee", "addr:street": null, "addr:housenumber": null, "cuisine": "coffee_shop", "addr:postcode": null, "addr:city": null, "website": null, "addr:state": null, "opening_hours": null, "phone": null, "internet_access": null, "outdoor_seating": null, "smoking": null, "internet_access:fee": null, "wheelchair": null, "brand": null, "brand:wikidata": null, "brand:wikipedia": null, "wifi": null, "description": null, "level": null, "drive_through": null, "operator": null, "addr:country": null, "alt_name": null, "atm": null, "email": null, "takeaway": null, "toilets:wheelchair": null }, "geometry": { "type": "Point", "coordinates": [ -93.3213541, 44.9473879 ] } },
{ "type": "Feature", "properties": { "amenity": "cafe", "name": "Caribou Coffee", "addr:street": null, "addr:housenumber": null, "cuisine": null, "addr:postcode": null, "addr:city": null, "website": null, "addr:state": null, "opening_hours": "Mo-Th 07:00-21:00; Fr 07:00-16:00; Sa 09:00-16:00", "phone": null, "internet_access": null, "outdoor_seating": null, "smoking": null, "internet_access:fee": null, "wheelchair": null, "brand": null, "brand:wikidata": null, "brand:wikipedia": null, "wifi": null, "description": null, "level": null, "drive_through": null, "operator": null, "addr:country": null, "alt_name": null, "atm": null, "email": null, "takeaway": null, "toilets:wheelchair": null }, "geometry": { "type": "Point", "coordinates": [ -93.2317497, 44.9733458 ] } },
{ "type": "Feature", "properties": { "amenity": "cafe", "name": "Caribou Coffee", "addr:street": null, "addr:housenumber": null, "cuisine": null, "addr:postcode": null, "addr:city": null, "website": null, "addr:state": null, "opening_hours": null, "phone": null, "internet_access": null, "outdoor_seating": null, "smoking": null, "internet_access:fee": null, "wheelchair": null, "brand": null, "brand:wikidata": null, "brand:wikipedia": null, "wifi": null, "description": null, "level": null, "drive_through": null, "operator": null, "addr:country": null, "alt_name": null, "atm": null, "email": null, "takeaway": null, "toilets:wheelchair": null }, "geometry": { "type": "Point", "coordinates": [ -93.2734826, 44.9759831 ] } },
{ "type": "Feature", "properties": { "amenity": "cafe", "name": "Caribou Coffee", "addr:street": null, "addr:housenumber": null, "cuisine": null, "addr:postcode": null, "addr:city": null, "website": null, "addr:state": null, "opening_hours": null, "phone": null, "internet_access": null, "outdoor_seating": null, "smoking": null, "internet_access:fee": null, "wheelchair": null, "brand": null, "brand:wikidata": null, "brand:wikipedia": null, "wifi": null, "description": null, "level": null, "drive_through": null, "operator": null, "addr:country": null, "alt_name": null, "atm": null, "email": null, "takeaway": null, "toilets:wheelchair": null }, "geometry": { "type": "Point", "coordinates": [ -93.2716309, 44.9772884 ] } },
{ "type": "Feature", "properties": { "amenity": "cafe", "name": "Carley Coffee", "addr:street": "West Lake Street", "addr:housenumber": "821", "cuisine": null, "addr:postcode": "55408", "addr:city": "Minneapolis", "website": "carleycoffee.com", "addr:state": "MN", "opening_hours": null, "phone": "612-824-6200", "internet_access": null, "outdoor_seating": null, "smoking": null, "internet_access:fee": null, "wheelchair": null, "brand": null, "brand:wikidata": null, "brand:wikipedia": null, "wifi": null, "description": null, "level": null, "drive_through": null, "operator": null, "addr:country": null, "alt_name": null, "atm": null, "email": null, "takeaway": null, "toilets:wheelchair": null }, "geometry": { "type": "Point", "coordinates": [ -93.2904793, 44.9482275 ] } },
{ "type": "Feature", "properties": { "amenity": "cafe", "name": "Code Blu Coffee", "addr:street": "East Franklin Avenue", "addr:housenumber": "2620", "cuisine": "coffee", "addr:postcode": "55406", "addr:city": "Minneapolis", "website": "https:\/\/www.facebook.com\/codeblucoffee\/", "addr:state": "MN", "opening_hours": null, "phone": null, "internet_access": null, "outdoor_seating": "yes", "smoking": null, "internet_access:fee": null, "wheelchair": null, "brand": null, "brand:wikidata": null, "brand:wikipedia": null, "wifi": null, "description": null, "level": null, "drive_through": null, "operator": null, "addr:country": null, "alt_name": null, "atm": null, "email": null, "takeaway": null, "toilets:wheelchair": null }, "geometry": { "type": "Point", "coordinates": [ -93.2334519, 44.9629174 ] } },
{ "type": "Feature", "properties": { "amenity": "cafe", "name": "Coffee Shop", "addr:street": "Lyndale Avenue South", "addr:housenumber": "2651", "cuisine": null, "addr:postcode": "55405", "addr:city": "Minneapolis", "website": "https:\/\/www.bobsjavahut.com\/", "addr:state": "MN", "opening_hours": "Su-We 06:30-22:00; Th-Sa 06:30-22:00+", "phone": "612-871-4485", "internet_access": null, "outdoor_seating": null, "smoking": null, "internet_access:fee": null, "wheelchair": null, "brand": null, "brand:wikidata": null, "brand:wikipedia": null, "wifi": null, "description": "Coffee shop serving espresso drinks & light bites in a colorful retro-diner-meets-biker-bar space.", "level": "1", "drive_through": null, "operator": null, "addr:country": null, "alt_name": null, "atm": null, "email": null, "takeaway": null, "toilets:wheelchair": null }, "geometry": { "type": "Point", "coordinates": [ -93.2878373, 44.9538376 ] } },
{ "type": "Feature", "properties": { "amenity": "cafe", "name": "Corner Coffee", "addr:street": null, "addr:housenumber": null, "cuisine": "coffee_shop", "addr:postcode": null, "addr:city": null, "website": null, "addr:state": null, "opening_hours": null, "phone": null, "internet_access": null, "outdoor_seating": null, "smoking": null, "internet_access:fee": null, "wheelchair": null, "brand": null, "brand:wikidata": null, "brand:wikipedia": null, "wifi": null, "description": null, "level": null, "drive_through": null, "operator": null, "addr:country": null, "alt_name": null, "atm": null, "email": null, "takeaway": null, "toilets:wheelchair": null }, "geometry": { "type": "Point", "coordinates": [ -93.2762636, 44.9857583 ] } },
{ "type": "Feature", "properties": { "amenity": "cafe", "name": "Diamonds Coffee Shop", "addr:street": null, "addr:housenumber": null, "cuisine": null, "addr:postcode": null, "addr:city": null, "website": null, "addr:state": null, "opening_hours": null, "phone": null, "internet_access": null, "outdoor_seating": null, "smoking": null, "internet_access:fee": null, "wheelchair": null, "brand": null, "brand:wikidata": null, "brand:wikipedia": null, "wifi": null, "description": null, "level": null, "drive_through": null, "operator": null, "addr:country": null, "alt_name": null, "atm": null, "email": null, "takeaway": null, "toilets:wheelchair": null }, "geometry": { "type": "Point", "coordinates": [ -93.247563, 45.0043643 ] } },
{ "type": "Feature", "properties": { "amenity": "cafe", "name": "Dogwood Coffee", "addr:street": "Hennepin Avenue South", "addr:housenumber": "3001", "cuisine": null, "addr:postcode": "55408", "addr:city": "Minneapolis", "website": "https:\/\/www.dogwoodcoffee.com\/", "addr:state": "MN", "opening_hours": null, "phone": null, "internet_access": "wlan", "outdoor_seating": null, "smoking": null, "internet_access:fee": null, "wheelchair": null, "brand": null, "brand:wikidata": null, "brand:wikipedia": null, "wifi": null, "description": null, "level": "G", "drive_through": null, "operator": null, "addr:country": null, "alt_name": null, "atm": null, "email": null, "takeaway": null, "toilets:wheelchair": null }, "geometry": { "type": "Point", "coordinates": [ -93.298059, 44.94737 ] } },
{ "type": "Feature", "properties": { "amenity": "cafe", "name": "Dunn Bros", "addr:street": "Hennepin Avenue South", "addr:housenumber": "3348", "cuisine": "coffee_shop", "addr:postcode": "55408", "addr:city": null, "website": "www.dunnbros.com", "addr:state": null, "opening_hours": null, "phone": null, "internet_access": null, "outdoor_seating": null, "smoking": null, "internet_access:fee": null, "wheelchair": null, "brand": null, "brand:wikidata": null, "brand:wikipedia": null, "wifi": "free", "description": null, "level": null, "drive_through": null, "operator": null, "addr:country": null, "alt_name": null, "atm": null, "email": null, "takeaway": null, "toilets:wheelchair": null }, "geometry": { "type": "Point", "coordinates": [ -93.2985864, 44.9414929 ] } },
{ "type": "Feature", "properties": { "amenity": "cafe", "name": "Dunn Bros", "addr:street": "West 15th Street", "addr:housenumber": "329", "cuisine": "coffee_shop", "addr:postcode": "55403", "addr:city": "Minneapolis", "website": "http:\/\/loringpark.dunnbros.com\/", "addr:state": null, "opening_hours": null, "phone": null, "internet_access": "yes", "outdoor_seating": null, "smoking": null, "internet_access:fee": null, "wheelchair": null, "brand": null, "brand:wikidata": null, "brand:wikipedia": null, "wifi": null, "description": null, "level": null, "drive_through": null, "operator": null, "addr:country": null, "alt_name": null, "atm": null, "email": null, "takeaway": null, "toilets:wheelchair": null }, "geometry": { "type": "Point", "coordinates": [ -93.2837751, 44.9678114 ] } },
{ "type": "Feature", "properties": { "amenity": "cafe", "name": "Dunn Bros", "addr:street": null, "addr:housenumber": null, "cuisine": "coffee_shop", "addr:postcode": null, "addr:city": null, "website": null, "addr:state": null, "opening_hours": "Mo-Fr 06:30-19:00; Sa,Su 07:00-19:00", "phone": null, "internet_access": null, "outdoor_seating": null, "smoking": null, "internet_access:fee": null, "wheelchair": null, "brand": null, "brand:wikidata": null, "brand:wikipedia": null, "wifi": null, "description": null, "level": null, "drive_through": null, "operator": null, "addr:country": null, "alt_name": null, "atm": null, "email": null, "takeaway": null, "toilets:wheelchair": null }, "geometry": { "type": "Point", "coordinates": [ -93.2780776, 44.9557701 ] } },
{ "type": "Feature", "properties": { "amenity": "cafe", "name": "Dunn Bros", "addr:street": null, "addr:housenumber": null, "cuisine": null, "addr:postcode": null, "addr:city": null, "website": null, "addr:state": null, "opening_hours": null, "phone": null, "internet_access": null, "outdoor_seating": null, "smoking": null, "internet_access:fee": null, "wheelchair": "yes", "brand": null, "brand:wikidata": null, "brand:wikipedia": null, "wifi": null, "description": null, "level": null, "drive_through": null, "operator": null, "addr:country": null, "alt_name": null, "atm": null, "email": null, "takeaway": null, "toilets:wheelchair": null }, "geometry": { "type": "Point", "coordinates": [ -93.2061087, 44.9485525 ] } },
{ "type": "Feature", "properties": { "amenity": "cafe", "name": "Dunn Bros Coffee", "addr:street": "West 43rd Street", "addr:housenumber": "2814", "cuisine": "coffee_shop", "addr:postcode": "55410", "addr:city": "Minneapolis", "website": "http:\/\/lindenhills.dunnbros.com", "addr:state": null, "opening_hours": null, "phone": null, "internet_access": null, "outdoor_seating": null, "smoking": null, "internet_access:fee": null, "wheelchair": null, "brand": null, "brand:wikidata": null, "brand:wikipedia": null, "wifi": null, "description": null, "level": null, "drive_through": null, "operator": null, "addr:country": null, "alt_name": null, "atm": null, "email": null, "takeaway": null, "toilets:wheelchair": null }, "geometry": { "type": "Point", "coordinates": [ -93.3152995, 44.9248506 ] } },
{ "type": "Feature", "properties": { "amenity": "cafe", "name": "Edina Creamery", "addr:street": "France Avenue South", "addr:housenumber": "5055", "cuisine": "ice_cream", "addr:postcode": null, "addr:city": null, "website": null, "addr:state": null, "opening_hours": null, "phone": null, "internet_access": null, "outdoor_seating": null, "smoking": null, "internet_access:fee": null, "wheelchair": null, "brand": null, "brand:wikidata": null, "brand:wikipedia": null, "wifi": null, "description": null, "level": null, "drive_through": null, "operator": null, "addr:country": null, "alt_name": null, "atm": null, "email": null, "takeaway": null, "toilets:wheelchair": null }, "geometry": { "type": "Point", "coordinates": [ -93.3288668, 44.9108624 ] } },
{ "type": "Feature", "properties": { "amenity": "cafe", "name": "Espresso Royale", "addr:street": "Hennepin Avenue", "addr:housenumber": "1229", "cuisine": "coffee_shop", "addr:postcode": null, "addr:city": "Minneapolis", "website": null, "addr:state": null, "opening_hours": null, "phone": null, "internet_access": "wlan", "outdoor_seating": null, "smoking": "no", "internet_access:fee": null, "wheelchair": null, "brand": null, "brand:wikidata": null, "brand:wikipedia": null, "wifi": null, "description": null, "level": null, "drive_through": "no", "operator": null, "addr:country": null, "alt_name": null, "atm": null, "email": null, "takeaway": null, "toilets:wheelchair": null }, "geometry": { "type": "Point", "coordinates": [ -93.2814699, 44.9741602 ] } },
{ "type": "Feature", "properties": { "amenity": "cafe", "name": "Fabulous Restaurant & Coffee", "addr:street": null, "addr:housenumber": null, "cuisine": null, "addr:postcode": null, "addr:city": null, "website": null, "addr:state": null, "opening_hours": null, "phone": null, "internet_access": null, "outdoor_seating": null, "smoking": null, "internet_access:fee": null, "wheelchair": null, "brand": null, "brand:wikidata": null, "brand:wikipedia": null, "wifi": null, "description": null, "level": null, "drive_through": null, "operator": null, "addr:country": null, "alt_name": null, "atm": null, "email": null, "takeaway": null, "toilets:wheelchair": null }, "geometry": { "type": "Point", "coordinates": [ -93.2526212, 44.9553632 ] } },
{ "type": "Feature", "properties": { "amenity": "cafe", "name": "Five Watt Coffee", "addr:street": "Nicollet Avenue South", "addr:housenumber": "3754", "cuisine": "coffee_shop", "addr:postcode": "55409", "addr:city": "Minneapolis", "website": "http:\/\/fivewattcoffee.com", "addr:state": "MN", "opening_hours": "Mo-Su 6:00-22:00", "phone": "(612) 259-7519", "internet_access": "wlan", "outdoor_seating": null, "smoking": "outside", "internet_access:fee": "no", "wheelchair": null, "brand": null, "brand:wikidata": null, "brand:wikipedia": null, "wifi": null, "description": null, "level": null, "drive_through": null, "operator": null, "addr:country": null, "alt_name": null, "atm": null, "email": null, "takeaway": null, "toilets:wheelchair": null }, "geometry": { "type": "Point", "coordinates": [ -93.2777399, 44.9344398 ] } },
{ "type": "Feature", "properties": { "amenity": "cafe", "name": "French Meadow Bakery & Cafe", "addr:street": "Lyndale Avenue South", "addr:housenumber": "2610", "cuisine": null, "addr:postcode": "55405", "addr:city": "Minneapolis", "website": "https:\/\/www.frenchmeadowcafe.com\/", "addr:state": "MN", "opening_hours": "Su-Th 07:00-22:00; Fr,Sa 07:00-23:00", "phone": "612-870-7855", "internet_access": null, "outdoor_seating": null, "smoking": null, "internet_access:fee": null, "wheelchair": null, "brand": null, "brand:wikidata": null, "brand:wikipedia": null, "wifi": null, "description": "Fresh-baked goods & an all-day American menu with an emphasis on organic, sustainable ingredients.", "level": null, "drive_through": null, "operator": null, "addr:country": null, "alt_name": null, "atm": null, "email": null, "takeaway": null, "toilets:wheelchair": null }, "geometry": { "type": "Point", "coordinates": [ -93.2884214, 44.9550108 ] } },
{ "type": "Feature", "properties": { "amenity": "cafe", "name": "Fulton Street Cafe", "addr:street": "Southeast Fulton Street", "addr:housenumber": "909", "cuisine": null, "addr:postcode": "55455", "addr:city": "Minneapolis", "website": null, "addr:state": "MN", "opening_hours": null, "phone": null, "internet_access": null, "outdoor_seating": null, "smoking": null, "internet_access:fee": null, "wheelchair": null, "brand": null, "brand:wikidata": null, "brand:wikipedia": null, "wifi": null, "description": null, "level": null, "drive_through": null, "operator": null, "addr:country": null, "alt_name": null, "atm": null, "email": null, "takeaway": null, "toilets:wheelchair": null }, "geometry": { "type": "Point", "coordinates": [ -93.2249531, 44.9706568 ] } },
{ "type": "Feature", "properties": { "amenity": "cafe", "name": "Geek Love Cafe", "addr:street": null, "addr:housenumber": null, "cuisine": null, "addr:postcode": null, "addr:city": null, "website": "https:\/\/www.moonpalacebooks.com\/?q=p.geek_love_cafe_1", "addr:state": null, "opening_hours": null, "phone": null, "internet_access": null, "outdoor_seating": null, "smoking": null, "internet_access:fee": null, "wheelchair": null, "brand": null, "brand:wikidata": null, "brand:wikipedia": null, "wifi": null, "description": null, "level": null, "drive_through": null, "operator": null, "addr:country": null, "alt_name": null, "atm": null, "email": null, "takeaway": null, "toilets:wheelchair": null }, "geometry": { "type": "Point", "coordinates": [ -93.233945, 44.9472364 ] } },
{ "type": "Feature", "properties": { "amenity": "cafe", "name": "Glam Doll Donuts", "addr:street": "Nicollet Avenue South", "addr:housenumber": "2605", "cuisine": "donut", "addr:postcode": "55408", "addr:city": "Minneapolis", "website": "http:\/\/www.glamdolldonuts.com", "addr:state": "MN", "opening_hours": "Mo-Th 07:00-21:00, Fr 07:00-23:59, Sa 00:00-01:00,07:00-23:59, Su 00:00-01:00,07:00-15:00", "phone": null, "internet_access": null, "outdoor_seating": null, "smoking": null, "internet_access:fee": null, "wheelchair": null, "brand": null, "brand:wikidata": null, "brand:wikipedia": null, "wifi": null, "description": null, "level": null, "drive_through": null, "operator": null, "addr:country": null, "alt_name": null, "atm": null, "email": null, "takeaway": null, "toilets:wheelchair": null }, "geometry": { "type": "Point", "coordinates": [ -93.2776746, 44.9551732 ] } },
{ "type": "Feature", "properties": { "amenity": "cafe", "name": "In the Loop Coffee Co.", "addr:street": "North 1st Street", "addr:housenumber": "708", "cuisine": "coffee_shop", "addr:postcode": "55401", "addr:city": "Minneapolis", "website": "http:\/\/www.intheloopcoffee.com", "addr:state": "MN", "opening_hours": null, "phone": null, "internet_access": null, "outdoor_seating": "yes", "smoking": "no", "internet_access:fee": null, "wheelchair": null, "brand": null, "brand:wikidata": null, "brand:wikipedia": null, "wifi": null, "description": null, "level": null, "drive_through": null, "operator": null, "addr:country": null, "alt_name": null, "atm": null, "email": null, "takeaway": null, "toilets:wheelchair": null }, "geometry": { "type": "Point", "coordinates": [ -93.275051, 44.9898144 ] } },
{ "type": "Feature", "properties": { "amenity": "cafe", "name": "Isles Bun & Coffee", "addr:street": "West 28th Street", "addr:housenumber": "1424", "cuisine": "coffee_shop", "addr:postcode": "55408", "addr:city": "Minneapolis", "website": "http:\/\/www.islesbun.com", "addr:state": null, "opening_hours": null, "phone": "+1 612 870 4466", "internet_access": "yes", "outdoor_seating": null, "smoking": null, "internet_access:fee": null, "wheelchair": null, "brand": null, "brand:wikidata": null, "brand:wikipedia": null, "wifi": null, "description": null, "level": null, "drive_through": null, "operator": null, "addr:country": null, "alt_name": null, "atm": null, "email": null, "takeaway": null, "toilets:wheelchair": null }, "geometry": { "type": "Point", "coordinates": [ -93.2987215, 44.9521554 ] } },
{ "type": "Feature", "properties": { "amenity": "cafe", "name": "Izzy's Ice Cream Cafe", "addr:street": "South 2nd Street", "addr:housenumber": "1100", "cuisine": "ice_cream", "addr:postcode": "55415", "addr:city": "Minneapolis", "website": "https:\/\/izzysicecream.com\/", "addr:state": null, "opening_hours": "Mo-Su 11:00-23:00", "phone": null, "internet_access": null, "outdoor_seating": null, "smoking": null, "internet_access:fee": null, "wheelchair": "yes", "brand": null, "brand:wikidata": null, "brand:wikipedia": null, "wifi": null, "description": null, "level": null, "drive_through": null, "operator": "Izzyâ€™s Ice Cream", "addr:country": null, "alt_name": null, "atm": null, "email": null, "takeaway": null, "toilets:wheelchair": "yes" }, "geometry": { "type": "Point", "coordinates": [ -93.2520433, 44.9764334 ] } },
{ "type": "Feature", "properties": { "amenity": "cafe", "name": "Kilimanjaro Cafe", "addr:street": null, "addr:housenumber": null, "cuisine": null, "addr:postcode": null, "addr:city": null, "website": null, "addr:state": null, "opening_hours": null, "phone": null, "internet_access": null, "outdoor_seating": null, "smoking": null, "internet_access:fee": null, "wheelchair": null, "brand": null, "brand:wikidata": null, "brand:wikipedia": null, "wifi": null, "description": null, "level": null, "drive_through": null, "operator": null, "addr:country": null, "alt_name": null, "atm": null, "email": null, "takeaway": null, "toilets:wheelchair": null }, "geometry": { "type": "Point", "coordinates": [ -93.2474425, 44.9705939 ] } },
{ "type": "Feature", "properties": { "amenity": "cafe", "name": "Kung Fa Tea", "addr:street": "Southeast Washington Avenue", "addr:housenumber": "923", "cuisine": null, "addr:postcode": "55414", "addr:city": "Minneapolis", "website": "https:\/\/www.kungfutea.com\/", "addr:state": "MN", "opening_hours": null, "phone": "612-379-8886", "internet_access": null, "outdoor_seating": null, "smoking": null, "internet_access:fee": null, "wheelchair": null, "brand": null, "brand:wikidata": null, "brand:wikipedia": null, "wifi": null, "description": null, "level": null, "drive_through": null, "operator": null, "addr:country": null, "alt_name": null, "atm": null, "email": null, "takeaway": null, "toilets:wheelchair": null }, "geometry": { "type": "Point", "coordinates": [ -93.2247277, 44.9738793 ] } },
{ "type": "Feature", "properties": { "amenity": "cafe", "name": "Kung Fu Tea", "addr:street": "Southeast 14th Avenue", "addr:housenumber": "507", "cuisine": "tea;bubble_tea", "addr:postcode": "55414", "addr:city": "Minneapolis", "website": "https:\/\/www.kungfutea.com\/", "addr:state": "MN", "opening_hours": "Mo-Th 11:00-22:00; Fr-Sa 11:00-23:00; Su 11:00-22:00", "phone": "612-353-5088", "internet_access": null, "outdoor_seating": null, "smoking": null, "internet_access:fee": null, "wheelchair": null, "brand": null, "brand:wikidata": null, "brand:wikipedia": null, "wifi": null, "description": null, "level": null, "drive_through": null, "operator": null, "addr:country": null, "alt_name": null, "atm": null, "email": null, "takeaway": null, "toilets:wheelchair": null }, "geometry": { "type": "Point", "coordinates": [ -93.2348912, 44.981943 ] } },
{ "type": "Feature", "properties": { "amenity": "cafe", "name": "Maeve's Cafe", "addr:street": "Northeast 13th Avenue", "addr:housenumber": "300", "cuisine": null, "addr:postcode": "55413", "addr:city": null, "website": null, "addr:state": null, "opening_hours": null, "phone": null, "internet_access": null, "outdoor_seating": null, "smoking": null, "internet_access:fee": null, "wheelchair": null, "brand": null, "brand:wikidata": null, "brand:wikipedia": null, "wifi": null, "description": null, "level": null, "drive_through": null, "operator": null, "addr:country": null, "alt_name": null, "atm": null, "email": null, "takeaway": null, "toilets:wheelchair": null }, "geometry": { "type": "Point", "coordinates": [ -93.2643913, 45.0007486 ] } },
{ "type": "Feature", "properties": { "amenity": "cafe", "name": "Mapps Coffee and Tea", "addr:street": "East Lake Street", "addr:housenumber": null, "cuisine": "coffee_shop", "addr:postcode": null, "addr:city": null, "website": null, "addr:state": null, "opening_hours": null, "phone": null, "internet_access": null, "outdoor_seating": null, "smoking": null, "internet_access:fee": null, "wheelchair": null, "brand": null, "brand:wikidata": null, "brand:wikipedia": null, "wifi": null, "description": null, "level": null, "drive_through": null, "operator": null, "addr:country": null, "alt_name": null, "atm": null, "email": null, "takeaway": null, "toilets:wheelchair": null }, "geometry": { "type": "Point", "coordinates": [ -93.2609595, 44.9489089 ] } },
{ "type": "Feature", "properties": { "amenity": "cafe", "name": "Matchbox Coffee Shop", "addr:street": "Northeast 2nd Street", "addr:housenumber": "1306", "cuisine": "coffee_shop", "addr:postcode": "55413", "addr:city": "Minneapolis", "website": null, "addr:state": null, "opening_hours": null, "phone": null, "internet_access": null, "outdoor_seating": null, "smoking": null, "internet_access:fee": null, "wheelchair": null, "brand": null, "brand:wikidata": null, "brand:wikipedia": null, "wifi": null, "description": null, "level": null, "drive_through": null, "operator": null, "addr:country": null, "alt_name": null, "atm": null, "email": null, "takeaway": null, "toilets:wheelchair": null }, "geometry": { "type": "Point", "coordinates": [ -93.2663303, 45.0012415 ] } },
{ "type": "Feature", "properties": { "amenity": "cafe", "name": "May Day Cafe", "addr:street": null, "addr:housenumber": null, "cuisine": null, "addr:postcode": null, "addr:city": null, "website": null, "addr:state": null, "opening_hours": null, "phone": null, "internet_access": null, "outdoor_seating": null, "smoking": null, "internet_access:fee": null, "wheelchair": null, "brand": null, "brand:wikidata": null, "brand:wikipedia": null, "wifi": null, "description": null, "level": null, "drive_through": null, "operator": null, "addr:country": null, "alt_name": null, "atm": null, "email": null, "takeaway": null, "toilets:wheelchair": null }, "geometry": { "type": "Point", "coordinates": [ -93.2526453, 44.9398848 ] } },
{ "type": "Feature", "properties": { "amenity": "cafe", "name": "Misfit Coffee", "addr:street": "Lyndale Avenue South", "addr:housenumber": "2401", "cuisine": "coffee_shop", "addr:postcode": "55405", "addr:city": "Minneapolis", "website": "https:\/\/www.misfitcoffee.com\/", "addr:state": "MN", "opening_hours": "Mo-Fr 07:00-22:00, Sa-Su 08:00-22:00", "phone": "(414) 839-5565", "internet_access": "wifi", "outdoor_seating": "yes", "smoking": "outside", "internet_access:fee": "no", "wheelchair": null, "brand": null, "brand:wikidata": null, "brand:wikipedia": null, "wifi": "yes", "description": null, "level": null, "drive_through": "no", "operator": null, "addr:country": null, "alt_name": "Misfit Coffee", "atm": "no", "email": null, "takeaway": "yes", "toilets:wheelchair": null }, "geometry": { "type": "Point", "coordinates": [ -93.287828, 44.959018 ] } },
{ "type": "Feature", "properties": { "amenity": "cafe", "name": "Modern Times Cafe", "addr:street": null, "addr:housenumber": null, "cuisine": null, "addr:postcode": null, "addr:city": null, "website": null, "addr:state": null, "opening_hours": null, "phone": null, "internet_access": null, "outdoor_seating": null, "smoking": null, "internet_access:fee": null, "wheelchair": null, "brand": null, "brand:wikidata": null, "brand:wikipedia": null, "wifi": "free", "description": null, "level": null, "drive_through": null, "operator": null, "addr:country": null, "alt_name": null, "atm": null, "email": null, "takeaway": null, "toilets:wheelchair": null }, "geometry": { "type": "Point", "coordinates": [ -93.2628597, 44.9445996 ] } },
{ "type": "Feature", "properties": { "amenity": "cafe", "name": "Moose & Sadie's", "addr:street": null, "addr:housenumber": null, "cuisine": null, "addr:postcode": null, "addr:city": null, "website": "http:\/\/www.mooseandsadies.com", "addr:state": null, "opening_hours": null, "phone": null, "internet_access": null, "outdoor_seating": "yes", "smoking": null, "internet_access:fee": null, "wheelchair": null, "brand": null, "brand:wikidata": null, "brand:wikipedia": null, "wifi": null, "description": null, "level": null, "drive_through": null, "operator": null, "addr:country": null, "alt_name": null, "atm": null, "email": null, "takeaway": null, "toilets:wheelchair": null }, "geometry": { "type": "Point", "coordinates": [ -93.2716769, 44.9853262 ] } },
{ "type": "Feature", "properties": { "amenity": "cafe", "name": "Nokomis Beach Coffee Cafe", "addr:street": "28th Avenue South", "addr:housenumber": "4956", "cuisine": "coffee_shop", "addr:postcode": "55417", "addr:city": "Minneapolis", "website": null, "addr:state": "MN", "opening_hours": null, "phone": null, "internet_access": "yes", "outdoor_seating": null, "smoking": null, "internet_access:fee": null, "wheelchair": null, "brand": null, "brand:wikidata": null, "brand:wikipedia": null, "wifi": null, "description": null, "level": null, "drive_through": null, "operator": null, "addr:country": null, "alt_name": null, "atm": null, "email": null, "takeaway": null, "toilets:wheelchair": null }, "geometry": { "type": "Point", "coordinates": [ -93.2324647, 44.9128064 ] } },
{ "type": "Feature", "properties": { "amenity": "cafe", "name": "One on One Bicycle Studio", "addr:street": "Washington Avenue North", "addr:housenumber": "117", "cuisine": null, "addr:postcode": "55401", "addr:city": null, "website": "https:\/\/www.oneononebike.com\/", "addr:state": null, "opening_hours": null, "phone": "+1 612 371 9565", "internet_access": null, "outdoor_seating": null, "smoking": null, "internet_access:fee": null, "wheelchair": null, "brand": null, "brand:wikidata": null, "brand:wikipedia": null, "wifi": null, "description": null, "level": null, "drive_through": null, "operator": null, "addr:country": null, "alt_name": null, "atm": null, "email": null, "takeaway": null, "toilets:wheelchair": null }, "geometry": { "type": "Point", "coordinates": [ -93.2710693, 44.9832039 ] } },
{ "type": "Feature", "properties": { "amenity": "cafe", "name": "Peace Coffee Shop", "addr:street": "Minnehaha Avenue", "addr:housenumber": "3262", "cuisine": null, "addr:postcode": "55406", "addr:city": "Minneapolis", "website": "http:\/\/www.peacecoffeeshop.com", "addr:state": null, "opening_hours": null, "phone": null, "internet_access": null, "outdoor_seating": null, "smoking": null, "internet_access:fee": null, "wheelchair": null, "brand": null, "brand:wikidata": null, "brand:wikipedia": null, "wifi": null, "description": null, "level": null, "drive_through": null, "operator": null, "addr:country": null, "alt_name": null, "atm": null, "email": null, "takeaway": null, "toilets:wheelchair": null }, "geometry": { "type": "Point", "coordinates": [ -93.2307075, 44.9431093 ] } },
{ "type": "Feature", "properties": { "amenity": "cafe", "name": "Penny's", "addr:street": null, "addr:housenumber": null, "cuisine": null, "addr:postcode": null, "addr:city": null, "website": null, "addr:state": null, "opening_hours": null, "phone": null, "internet_access": "wlan", "outdoor_seating": null, "smoking": null, "internet_access:fee": null, "wheelchair": null, "brand": null, "brand:wikidata": null, "brand:wikipedia": null, "wifi": null, "description": null, "level": null, "drive_through": null, "operator": null, "addr:country": null, "alt_name": null, "atm": null, "email": null, "takeaway": null, "toilets:wheelchair": null }, "geometry": { "type": "Point", "coordinates": [ -93.3244884, 44.9230287 ] } },
{ "type": "Feature", "properties": { "amenity": "cafe", "name": "Penny's Coffee", "addr:street": "Washington Avenue South", "addr:housenumber": "100", "cuisine": "coffee;coffee_shop", "addr:postcode": "55401", "addr:city": "Minneapolis", "website": null, "addr:state": "MN", "opening_hours": "Mo-Su 07:00-17:00", "phone": null, "internet_access": null, "outdoor_seating": "yes", "smoking": null, "internet_access:fee": null, "wheelchair": null, "brand": null, "brand:wikidata": null, "brand:wikipedia": null, "wifi": null, "description": null, "level": "0", "drive_through": null, "operator": "Penny's Coffee", "addr:country": null, "alt_name": null, "atm": null, "email": null, "takeaway": null, "toilets:wheelchair": null }, "geometry": { "type": "Point", "coordinates": [ -93.2660794, 44.9812428 ] } },
{ "type": "Feature", "properties": { "amenity": "cafe", "name": "Pow Wow Grounds", "addr:street": "Franklin Avenue", "addr:housenumber": "1414", "cuisine": null, "addr:postcode": null, "addr:city": null, "website": null, "addr:state": null, "opening_hours": null, "phone": null, "internet_access": null, "outdoor_seating": null, "smoking": null, "internet_access:fee": null, "wheelchair": null, "brand": null, "brand:wikidata": null, "brand:wikipedia": null, "wifi": null, "description": null, "level": null, "drive_through": null, "operator": null, "addr:country": null, "alt_name": null, "atm": null, "email": null, "takeaway": null, "toilets:wheelchair": null }, "geometry": { "type": "Point", "coordinates": [ -93.2544523, 44.9629047 ] } },
{ "type": "Feature", "properties": { "amenity": "cafe", "name": "Precision Grind Coffee", "addr:street": null, "addr:housenumber": null, "cuisine": null, "addr:postcode": null, "addr:city": null, "website": null, "addr:state": null, "opening_hours": null, "phone": null, "internet_access": null, "outdoor_seating": null, "smoking": null, "internet_access:fee": null, "wheelchair": null, "brand": null, "brand:wikidata": null, "brand:wikipedia": null, "wifi": null, "description": null, "level": null, "drive_through": null, "operator": null, "addr:country": null, "alt_name": null, "atm": null, "email": null, "takeaway": null, "toilets:wheelchair": null }, "geometry": { "type": "Point", "coordinates": [ -93.2397041, 44.9626273 ] } },
{ "type": "Feature", "properties": { "amenity": "cafe", "name": "Purple Onion CafÃ©", "addr:street": "Southeast University Avenue", "addr:housenumber": "1301", "cuisine": "coffee_shop;cafe", "addr:postcode": "55414", "addr:city": "Minneapolis", "website": "thepurpleonioncafe.com", "addr:state": "MN", "opening_hours": "Mo-Su 06:30-22:00", "phone": "612-315-2629", "internet_access": "wlan", "outdoor_seating": "yes", "smoking": null, "internet_access:fee": null, "wheelchair": null, "brand": null, "brand:wikidata": null, "brand:wikipedia": null, "wifi": null, "description": null, "level": null, "drive_through": "no", "operator": null, "addr:country": "US", "alt_name": null, "atm": "no", "email": null, "takeaway": null, "toilets:wheelchair": null }, "geometry": { "type": "Point", "coordinates": [ -93.2375532, 44.9801419 ] } },
{ "type": "Feature", "properties": { "amenity": "cafe", "name": "Reverie Cafe + Bar", "addr:street": "Nicollet Avenue South", "addr:housenumber": "1931", "cuisine": "coffee_shop;cafe;beer", "addr:postcode": "55403", "addr:city": "Minneapolis", "website": "https:\/\/www.reveriempls.com\/", "addr:state": "MN", "opening_hours": null, "phone": null, "internet_access": "wlan", "outdoor_seating": null, "smoking": null, "internet_access:fee": null, "wheelchair": null, "brand": null, "brand:wikidata": null, "brand:wikipedia": null, "wifi": "yes", "description": null, "level": null, "drive_through": null, "operator": null, "addr:country": null, "alt_name": null, "atm": null, "email": null, "takeaway": null, "toilets:wheelchair": null }, "geometry": { "type": "Point", "coordinates": [ -93.2776305, 44.9628489 ] } },
{ "type": "Feature", "properties": { "amenity": "cafe", "name": "Riverview Cafe", "addr:street": null, "addr:housenumber": null, "cuisine": null, "addr:postcode": null, "addr:city": null, "website": null, "addr:state": null, "opening_hours": null, "phone": null, "internet_access": null, "outdoor_seating": null, "smoking": null, "internet_access:fee": null, "wheelchair": null, "brand": null, "brand:wikidata": null, "brand:wikipedia": null, "wifi": null, "description": null, "level": null, "drive_through": null, "operator": null, "addr:country": null, "alt_name": null, "atm": null, "email": null, "takeaway": null, "toilets:wheelchair": null }, "geometry": { "type": "Point", "coordinates": [ -93.2124809, 44.9344079 ] } },
{ "type": "Feature", "properties": { "amenity": "cafe", "name": "Sebastian Joe's Ice Cream", "addr:street": null, "addr:housenumber": null, "cuisine": "ice_cream", "addr:postcode": null, "addr:city": null, "website": null, "addr:state": null, "opening_hours": null, "phone": null, "internet_access": null, "outdoor_seating": null, "smoking": null, "internet_access:fee": null, "wheelchair": null, "brand": null, "brand:wikidata": null, "brand:wikipedia": null, "wifi": null, "description": null, "level": null, "drive_through": null, "operator": null, "addr:country": null, "alt_name": null, "atm": null, "email": null, "takeaway": null, "toilets:wheelchair": null }, "geometry": { "type": "Point", "coordinates": [ -93.314676, 44.923833 ] } },
{ "type": "Feature", "properties": { "amenity": "cafe", "name": "Sebastian Joe's Ice Cream", "addr:street": null, "addr:housenumber": null, "cuisine": null, "addr:postcode": null, "addr:city": null, "website": null, "addr:state": null, "opening_hours": null, "phone": null, "internet_access": null, "outdoor_seating": null, "smoking": null, "internet_access:fee": null, "wheelchair": null, "brand": null, "brand:wikidata": null, "brand:wikipedia": null, "wifi": null, "description": null, "level": null, "drive_through": null, "operator": null, "addr:country": null, "alt_name": null, "atm": null, "email": null, "takeaway": null, "toilets:wheelchair": null }, "geometry": { "type": "Point", "coordinates": [ -93.2921461, 44.9625368 ] } },
{ "type": "Feature", "properties": { "amenity": "cafe", "name": "Segue", "addr:street": "11th Avenue South", "addr:housenumber": "811", "cuisine": null, "addr:postcode": null, "addr:city": null, "website": null, "addr:state": null, "opening_hours": null, "phone": null, "internet_access": null, "outdoor_seating": null, "smoking": null, "internet_access:fee": null, "wheelchair": null, "brand": null, "brand:wikidata": null, "brand:wikipedia": null, "wifi": "yes", "description": null, "level": null, "drive_through": null, "operator": null, "addr:country": null, "alt_name": null, "atm": null, "email": null, "takeaway": null, "toilets:wheelchair": null }, "geometry": { "type": "Point", "coordinates": [ -93.2579166, 44.9689481 ] } },
{ "type": "Feature", "properties": { "amenity": "cafe", "name": "Selam Coffee", "addr:street": "Minnehaha Avenue", "addr:housenumber": "3860", "cuisine": "coffee_shop", "addr:postcode": "55406", "addr:city": "Minneapolis", "website": "http:\/\/selamcoffee.com", "addr:state": null, "opening_hours": null, "phone": null, "internet_access": null, "outdoor_seating": null, "smoking": null, "internet_access:fee": null, "wheelchair": null, "brand": null, "brand:wikidata": null, "brand:wikipedia": null, "wifi": null, "description": null, "level": null, "drive_through": null, "operator": null, "addr:country": null, "alt_name": null, "atm": null, "email": null, "takeaway": null, "toilets:wheelchair": null }, "geometry": { "type": "Point", "coordinates": [ -93.2230747, 44.9326006 ] } },
{ "type": "Feature", "properties": { "amenity": "cafe", "name": "Sencha Tea Bar", "addr:street": "Southeast Washington Avenue", "addr:housenumber": "825", "cuisine": "tea;bubble_tea", "addr:postcode": "55414", "addr:city": "Minneapolis", "website": "senchateabar.com", "addr:state": "MN", "opening_hours": null, "phone": "612-354-7405", "internet_access": null, "outdoor_seating": null, "smoking": null, "internet_access:fee": null, "wheelchair": null, "brand": null, "brand:wikidata": null, "brand:wikipedia": null, "wifi": null, "description": null, "level": null, "drive_through": null, "operator": null, "addr:country": null, "alt_name": null, "atm": null, "email": null, "takeaway": null, "toilets:wheelchair": null }, "geometry": { "type": "Point", "coordinates": [ -93.2259469, 44.973756 ] } },
{ "type": "Feature", "properties": { "amenity": "cafe", "name": "Sencha Tea Bar", "addr:street": null, "addr:housenumber": null, "cuisine": null, "addr:postcode": null, "addr:city": null, "website": "senchateabar.com", "addr:state": null, "opening_hours": "Mo-Th 07:00-22:00; Fr 07:00-00:00; Sa 09:00-00:00; Su 09:00-22:00", "phone": null, "internet_access": null, "outdoor_seating": null, "smoking": null, "internet_access:fee": null, "wheelchair": null, "brand": null, "brand:wikidata": null, "brand:wikipedia": null, "wifi": null, "description": "Hot & ice tea; bubble tea; a few sandwiches & pastries.", "level": null, "drive_through": null, "operator": null, "addr:country": null, "alt_name": null, "atm": null, "email": null, "takeaway": null, "toilets:wheelchair": null }, "geometry": { "type": "Point", "coordinates": [ -93.2966434, 44.9554113 ] } },
{ "type": "Feature", "properties": { "amenity": "cafe", "name": "Sister Sludge", "addr:street": "Bloomington Avenue South", "addr:housenumber": "4557", "cuisine": "coffee_shop", "addr:postcode": "55407", "addr:city": "Minneapolis", "website": null, "addr:state": "MN", "opening_hours": "Mo-Fr 06:00-19:00, Sa-Su 07:00-19:00", "phone": "(612) 722-3933", "internet_access": "wlan", "outdoor_seating": "yes", "smoking": null, "internet_access:fee": null, "wheelchair": null, "brand": null, "brand:wikidata": null, "brand:wikipedia": null, "wifi": "yes", "description": null, "level": null, "drive_through": null, "operator": null, "addr:country": null, "alt_name": "Sister Sludge Coffee Cafe", "atm": null, "email": null, "takeaway": null, "toilets:wheelchair": null }, "geometry": { "type": "Point", "coordinates": [ -93.2521322, 44.919824 ] } },
{ "type": "Feature", "properties": { "amenity": "cafe", "name": "Sisters' Sludge Coffee Cafe and Wine Bar", "addr:street": "23rd Avenue South", "addr:housenumber": "3746", "cuisine": null, "addr:postcode": null, "addr:city": null, "website": "https:\/\/sisters-sludge-coffee-cafe-and-wine-bar.business.site\/", "addr:state": null, "opening_hours": null, "phone": null, "internet_access": null, "outdoor_seating": null, "smoking": null, "internet_access:fee": null, "wheelchair": null, "brand": null, "brand:wikidata": null, "brand:wikipedia": null, "wifi": null, "description": null, "level": null, "drive_through": null, "operator": null, "addr:country": null, "alt_name": null, "atm": null, "email": null, "takeaway": null, "toilets:wheelchair": null }, "geometry": { "type": "Point", "coordinates": [ -93.2390991, 44.9342686 ] } },
{ "type": "Feature", "properties": { "amenity": "cafe", "name": "South City Cafe", "addr:street": null, "addr:housenumber": null, "cuisine": null, "addr:postcode": null, "addr:city": null, "website": null, "addr:state": null, "opening_hours": null, "phone": null, "internet_access": null, "outdoor_seating": null, "smoking": null, "internet_access:fee": null, "wheelchair": null, "brand": null, "brand:wikidata": null, "brand:wikipedia": null, "wifi": null, "description": null, "level": null, "drive_through": null, "operator": null, "addr:country": null, "alt_name": null, "atm": null, "email": null, "takeaway": null, "toilets:wheelchair": null }, "geometry": { "type": "Point", "coordinates": [ -93.2623347, 44.9410734 ] } },
{ "type": "Feature", "properties": { "amenity": "cafe", "name": "Sovereign Grounds", "addr:street": null, "addr:housenumber": null, "cuisine": null, "addr:postcode": null, "addr:city": null, "website": null, "addr:state": null, "opening_hours": null, "phone": null, "internet_access": null, "outdoor_seating": null, "smoking": null, "internet_access:fee": null, "wheelchair": null, "brand": null, "brand:wikidata": null, "brand:wikipedia": null, "wifi": null, "description": null, "level": null, "drive_through": null, "operator": null, "addr:country": null, "alt_name": null, "atm": null, "email": null, "takeaway": null, "toilets:wheelchair": null }, "geometry": { "type": "Point", "coordinates": [ -93.2621251, 44.915918 ] } },
{ "type": "Feature", "properties": { "amenity": "cafe", "name": "Sparrow Cafe", "addr:street": "Penn Avenue South", "addr:housenumber": "5001", "cuisine": "coffee_shop", "addr:postcode": "55419", "addr:city": "Minneapolis", "website": "https:\/\/sparrowcafe.com\/", "addr:state": "MN", "opening_hours": "Mo-Fr 06:00-17:00, Sa 07:00-17:00, Su 08:00-17:00", "phone": null, "internet_access": "wlan", "outdoor_seating": null, "smoking": "no", "internet_access:fee": null, "wheelchair": "yes", "brand": null, "brand:wikidata": null, "brand:wikipedia": null, "wifi": null, "description": null, "level": null, "drive_through": null, "operator": null, "addr:country": null, "alt_name": null, "atm": null, "email": null, "takeaway": null, "toilets:wheelchair": null }, "geometry": { "type": "Point", "coordinates": [ -93.3085235, 44.9122414 ] } },
{ "type": "Feature", "properties": { "amenity": "cafe", "name": "Spyhouse Coffee", "addr:street": "Nicollet Avenue South", "addr:housenumber": "2451", "cuisine": "coffee_shop", "addr:postcode": "55404", "addr:city": "Minneapolis", "website": "https:\/\/spyhousecoffee.com\/", "addr:state": "MN", "opening_hours": "Mo-Fr 06:00-23:00; Sa 07:00-23:00; Su 08:00-23:00", "phone": "612-871-3177", "internet_access": "yes", "outdoor_seating": null, "smoking": "no", "internet_access:fee": null, "wheelchair": "limited", "brand": null, "brand:wikidata": null, "brand:wikipedia": null, "wifi": null, "description": "Bustling coffee shop serves up house-roasted espresso drinks & baked goods in a sleek, modern venue.", "level": null, "drive_through": null, "operator": null, "addr:country": null, "alt_name": null, "atm": null, "email": null, "takeaway": "yes", "toilets:wheelchair": null }, "geometry": { "type": "Point", "coordinates": [ -93.2776589, 44.9574462 ] } },
{ "type": "Feature", "properties": { "amenity": "cafe", "name": "Spyhouse Coffee", "addr:street": null, "addr:housenumber": null, "cuisine": null, "addr:postcode": null, "addr:city": null, "website": "https:\/\/spyhousecoffee.com\/", "addr:state": null, "opening_hours": null, "phone": "+1 612 345 4348", "internet_access": null, "outdoor_seating": null, "smoking": null, "internet_access:fee": null, "wheelchair": "yes", "brand": null, "brand:wikidata": null, "brand:wikipedia": null, "wifi": null, "description": null, "level": null, "drive_through": null, "operator": null, "addr:country": "US", "alt_name": null, "atm": null, "email": null, "takeaway": null, "toilets:wheelchair": "yes" }, "geometry": { "type": "Point", "coordinates": [ -93.2463539, 44.9989099 ] } },
{ "type": "Feature", "properties": { "amenity": "cafe", "name": "Spyhouse Coffee Shop", "addr:street": "Hennepin Avenue South", "addr:housenumber": "2404", "cuisine": "coffee_shop", "addr:postcode": "55405", "addr:city": "Minneapolis", "website": "https:\/\/spyhousecoffee.com\/", "addr:state": null, "opening_hours": null, "phone": "+1 612 377 2278", "internet_access": "yes", "outdoor_seating": null, "smoking": null, "internet_access:fee": null, "wheelchair": null, "brand": null, "brand:wikidata": null, "brand:wikipedia": null, "wifi": null, "description": null, "level": null, "drive_through": null, "operator": null, "addr:country": null, "alt_name": null, "atm": null, "email": null, "takeaway": null, "toilets:wheelchair": null }, "geometry": { "type": "Point", "coordinates": [ -93.2945542, 44.9589662 ] } },
{ "type": "Feature", "properties": { "amenity": "cafe", "name": "Starbucks", "addr:street": "Lyndale Avenue South", "addr:housenumber": "5351", "cuisine": "coffee_shop", "addr:postcode": null, "addr:city": null, "website": null, "addr:state": null, "opening_hours": null, "phone": null, "internet_access": null, "outdoor_seating": null, "smoking": null, "internet_access:fee": null, "wheelchair": null, "brand": null, "brand:wikidata": null, "brand:wikipedia": null, "wifi": null, "description": null, "level": null, "drive_through": null, "operator": null, "addr:country": null, "alt_name": null, "atm": null, "email": null, "takeaway": null, "toilets:wheelchair": null }, "geometry": { "type": "Point", "coordinates": [ -93.2879882, 44.905213 ] } },
{ "type": "Feature", "properties": { "amenity": "cafe", "name": "Starbucks", "addr:street": "South 4th Street", "addr:housenumber": "515", "cuisine": "coffee_shop", "addr:postcode": "55415", "addr:city": "Minneapolis", "website": null, "addr:state": "MN", "opening_hours": null, "phone": "+1-612-357-6344", "internet_access": "yes", "outdoor_seating": "yes", "smoking": "no", "internet_access:fee": "no", "wheelchair": null, "brand": null, "brand:wikidata": null, "brand:wikipedia": null, "wifi": null, "description": null, "level": null, "drive_through": null, "operator": null, "addr:country": null, "alt_name": null, "atm": null, "email": null, "takeaway": null, "toilets:wheelchair": null }, "geometry": { "type": "Point", "coordinates": [ -93.2627672, 44.9766319 ] } },
{ "type": "Feature", "properties": { "amenity": "cafe", "name": "Starbucks", "addr:street": "Southeast 14th Avenue", "addr:housenumber": "425", "cuisine": "coffee_shop", "addr:postcode": "55414", "addr:city": "Minneapolis", "website": "starbucks.com", "addr:state": "MN", "opening_hours": "Mo-Th 06:00-22:00; Fr-Sa 06:00-22:30; Su 06:00-22:00", "phone": "612-331-0167", "internet_access": null, "outdoor_seating": null, "smoking": null, "internet_access:fee": null, "wheelchair": null, "brand": "Starbucks", "brand:wikidata": "Q37158", "brand:wikipedia": "en:Starbucks", "wifi": null, "description": null, "level": null, "drive_through": null, "operator": null, "addr:country": null, "alt_name": null, "atm": null, "email": null, "takeaway": null, "toilets:wheelchair": null }, "geometry": { "type": "Point", "coordinates": [ -93.2353416, 44.9813439 ] } },
{ "type": "Feature", "properties": { "amenity": "cafe", "name": "Starbucks", "addr:street": "Southeast Como Avenue", "addr:housenumber": "218", "cuisine": "coffee_shop", "addr:postcode": "55414", "addr:city": "Minneapolis", "website": null, "addr:state": "MN", "opening_hours": null, "phone": null, "internet_access": null, "outdoor_seating": null, "smoking": null, "internet_access:fee": null, "wheelchair": null, "brand": "Starbucks", "brand:wikidata": "Q37158", "brand:wikipedia": "en:Starbucks", "wifi": null, "description": null, "level": null, "drive_through": null, "operator": null, "addr:country": null, "alt_name": null, "atm": null, "email": null, "takeaway": null, "toilets:wheelchair": null }, "geometry": { "type": "Point", "coordinates": [ -93.2362272, 44.973438 ] } },
{ "type": "Feature", "properties": { "amenity": "cafe", "name": "Starbucks", "addr:street": "Southeast Washington Avenue", "addr:housenumber": "615", "cuisine": "coffee_shop", "addr:postcode": "55414", "addr:city": "Minneapolis", "website": null, "addr:state": "MN", "opening_hours": null, "phone": null, "internet_access": null, "outdoor_seating": "yes", "smoking": null, "internet_access:fee": null, "wheelchair": null, "brand": null, "brand:wikidata": null, "brand:wikipedia": null, "wifi": null, "description": null, "level": null, "drive_through": null, "operator": null, "addr:country": null, "alt_name": null, "atm": null, "email": null, "takeaway": null, "toilets:wheelchair": null }, "geometry": { "type": "Point", "coordinates": [ -93.2298733, 44.9739636 ] } },
{ "type": "Feature", "properties": { "amenity": "cafe", "name": "Starbucks", "addr:street": "West Lake Street", "addr:housenumber": "1300", "cuisine": "coffee_shop", "addr:postcode": "55408", "addr:city": "Minneapolis", "website": null, "addr:state": "MN", "opening_hours": null, "phone": null, "internet_access": null, "outdoor_seating": null, "smoking": null, "internet_access:fee": null, "wheelchair": null, "brand": "Starbucks", "brand:wikidata": "Q37158", "brand:wikipedia": "en:Starbucks", "wifi": null, "description": null, "level": null, "drive_through": null, "operator": null, "addr:country": null, "alt_name": null, "atm": null, "email": null, "takeaway": null, "toilets:wheelchair": null }, "geometry": { "type": "Point", "coordinates": [ -93.2960909, 44.9486291 ] } },
{ "type": "Feature", "properties": { "amenity": "cafe", "name": "Starbucks", "addr:street": null, "addr:housenumber": null, "cuisine": "coffee", "addr:postcode": null, "addr:city": null, "website": null, "addr:state": null, "opening_hours": null, "phone": null, "internet_access": null, "outdoor_seating": null, "smoking": null, "internet_access:fee": null, "wheelchair": null, "brand": null, "brand:wikidata": null, "brand:wikipedia": null, "wifi": null, "description": null, "level": null, "drive_through": null, "operator": null, "addr:country": null, "alt_name": null, "atm": null, "email": null, "takeaway": null, "toilets:wheelchair": null }, "geometry": { "type": "Point", "coordinates": [ -93.2671388, 44.983768 ] } },
{ "type": "Feature", "properties": { "amenity": "cafe", "name": "Starbucks", "addr:street": null, "addr:housenumber": null, "cuisine": "coffee_shop", "addr:postcode": null, "addr:city": null, "website": null, "addr:state": null, "opening_hours": null, "phone": null, "internet_access": null, "outdoor_seating": "no", "smoking": null, "internet_access:fee": null, "wheelchair": null, "brand": "Starbucks", "brand:wikidata": "Q37158", "brand:wikipedia": "en:Starbucks", "wifi": null, "description": null, "level": null, "drive_through": null, "operator": null, "addr:country": null, "alt_name": null, "atm": null, "email": null, "takeaway": null, "toilets:wheelchair": null }, "geometry": { "type": "Point", "coordinates": [ -93.2334543, 44.9747141 ] } },
{ "type": "Feature", "properties": { "amenity": "cafe", "name": "Starbucks", "addr:street": null, "addr:housenumber": null, "cuisine": "coffee_shop", "addr:postcode": null, "addr:city": null, "website": null, "addr:state": null, "opening_hours": null, "phone": null, "internet_access": null, "outdoor_seating": null, "smoking": null, "internet_access:fee": null, "wheelchair": null, "brand": "Starbucks", "brand:wikidata": "Q37158", "brand:wikipedia": "en:Starbucks", "wifi": null, "description": null, "level": "1", "drive_through": null, "operator": null, "addr:country": null, "alt_name": null, "atm": null, "email": null, "takeaway": null, "toilets:wheelchair": null }, "geometry": { "type": "Point", "coordinates": [ -93.2715641, 44.9762513 ] } },
{ "type": "Feature", "properties": { "amenity": "cafe", "name": "Starbucks", "addr:street": null, "addr:housenumber": null, "cuisine": "coffee_shop", "addr:postcode": null, "addr:city": null, "website": null, "addr:state": null, "opening_hours": null, "phone": null, "internet_access": null, "outdoor_seating": null, "smoking": null, "internet_access:fee": null, "wheelchair": null, "brand": null, "brand:wikidata": null, "brand:wikipedia": null, "wifi": null, "description": null, "level": null, "drive_through": null, "operator": null, "addr:country": null, "alt_name": null, "atm": null, "email": null, "takeaway": null, "toilets:wheelchair": null }, "geometry": { "type": "Point", "coordinates": [ -93.2725451, 44.9781436 ] } },
{ "type": "Feature", "properties": { "amenity": "cafe", "name": "Starbucks", "addr:street": null, "addr:housenumber": null, "cuisine": "coffee_shop", "addr:postcode": null, "addr:city": null, "website": null, "addr:state": null, "opening_hours": null, "phone": null, "internet_access": null, "outdoor_seating": null, "smoking": null, "internet_access:fee": null, "wheelchair": null, "brand": null, "brand:wikidata": null, "brand:wikipedia": null, "wifi": null, "description": null, "level": null, "drive_through": null, "operator": null, "addr:country": null, "alt_name": null, "atm": null, "email": null, "takeaway": null, "toilets:wheelchair": null }, "geometry": { "type": "Point", "coordinates": [ -93.2748697, 44.9790465 ] } },
{ "type": "Feature", "properties": { "amenity": "cafe", "name": "Starbucks", "addr:street": null, "addr:housenumber": null, "cuisine": null, "addr:postcode": null, "addr:city": null, "website": null, "addr:state": null, "opening_hours": null, "phone": null, "internet_access": null, "outdoor_seating": null, "smoking": null, "internet_access:fee": null, "wheelchair": "yes", "brand": null, "brand:wikidata": null, "brand:wikipedia": null, "wifi": null, "description": null, "level": null, "drive_through": null, "operator": null, "addr:country": null, "alt_name": null, "atm": null, "email": null, "takeaway": null, "toilets:wheelchair": null }, "geometry": { "type": "Point", "coordinates": [ -93.2780609, 44.962411 ] } },
{ "type": "Feature", "properties": { "amenity": "cafe", "name": "Starbucks", "addr:street": null, "addr:housenumber": null, "cuisine": null, "addr:postcode": null, "addr:city": null, "website": null, "addr:state": null, "opening_hours": null, "phone": null, "internet_access": null, "outdoor_seating": null, "smoking": null, "internet_access:fee": null, "wheelchair": null, "brand": null, "brand:wikidata": null, "brand:wikipedia": null, "wifi": null, "description": null, "level": null, "drive_through": null, "operator": null, "addr:country": null, "alt_name": null, "atm": null, "email": null, "takeaway": null, "toilets:wheelchair": null }, "geometry": { "type": "Point", "coordinates": [ -93.2356749, 44.964791 ] } },
{ "type": "Feature", "properties": { "amenity": "cafe", "name": "Starbucks", "addr:street": null, "addr:housenumber": null, "cuisine": null, "addr:postcode": null, "addr:city": null, "website": null, "addr:state": null, "opening_hours": null, "phone": null, "internet_access": null, "outdoor_seating": null, "smoking": null, "internet_access:fee": null, "wheelchair": null, "brand": null, "brand:wikidata": null, "brand:wikipedia": null, "wifi": null, "description": null, "level": null, "drive_through": null, "operator": null, "addr:country": null, "alt_name": null, "atm": null, "email": null, "takeaway": null, "toilets:wheelchair": null }, "geometry": { "type": "Point", "coordinates": [ -93.2742349, 44.9748649 ] } },
{ "type": "Feature", "properties": { "amenity": "cafe", "name": "Studio 2 Coffee Shop & Wine Bar", "addr:street": "West 46th Street", "addr:housenumber": "818", "cuisine": "coffee_shop;sandwich;ice_cream;wine", "addr:postcode": "55419", "addr:city": "Minneapolis", "website": "http:\/\/studio2mpls.com\/", "addr:state": "MN", "opening_hours": "We-Sa 07:00-21:00; Su-Tu 07:00-20:00", "phone": "+1-612-444-3460", "internet_access": "wlan", "outdoor_seating": "yes", "smoking": null, "internet_access:fee": "no", "wheelchair": null, "brand": null, "brand:wikidata": null, "brand:wikipedia": null, "wifi": null, "description": null, "level": null, "drive_through": null, "operator": null, "addr:country": null, "alt_name": null, "atm": null, "email": "info@studio2mpls.com", "takeaway": null, "toilets:wheelchair": null }, "geometry": { "type": "Point", "coordinates": [ -93.2905007, 44.9197084 ] } },
{ "type": "Feature", "properties": { "amenity": "cafe", "name": "The Beat Coffeehouse", "addr:street": null, "addr:housenumber": null, "cuisine": null, "addr:postcode": null, "addr:city": null, "website": null, "addr:state": null, "opening_hours": null, "phone": null, "internet_access": null, "outdoor_seating": null, "smoking": null, "internet_access:fee": null, "wheelchair": null, "brand": null, "brand:wikidata": null, "brand:wikipedia": null, "wifi": null, "description": null, "level": null, "drive_through": null, "operator": null, "addr:country": null, "alt_name": null, "atm": null, "email": null, "takeaway": null, "toilets:wheelchair": null }, "geometry": { "type": "Point", "coordinates": [ -93.2976763, 44.9520952 ] } },
{ "type": "Feature", "properties": { "amenity": "cafe", "name": "The Shoppe", "addr:street": "West Lake Street", "addr:housenumber": "915", "cuisine": null, "addr:postcode": "55408", "addr:city": "Minneapolis", "website": "theshoppeuptown.com", "addr:state": "MN", "opening_hours": null, "phone": null, "internet_access": null, "outdoor_seating": null, "smoking": null, "internet_access:fee": null, "wheelchair": null, "brand": null, "brand:wikidata": null, "brand:wikipedia": null, "wifi": null, "description": null, "level": null, "drive_through": null, "operator": null, "addr:country": null, "alt_name": null, "atm": null, "email": null, "takeaway": null, "toilets:wheelchair": null }, "geometry": { "type": "Point", "coordinates": [ -93.2914771, 44.9482448 ] } },
{ "type": "Feature", "properties": { "amenity": "cafe", "name": "Tim Hortons", "addr:street": "Southeast 14th Avenue", "addr:housenumber": "317", "cuisine": "breakfast;cafe", "addr:postcode": "55414", "addr:city": "Minneapolis", "website": "https:\/\/timhortons.com\/", "addr:state": "MN", "opening_hours": "Mo-Su 06:00-20:00", "phone": null, "internet_access": null, "outdoor_seating": null, "smoking": null, "internet_access:fee": null, "wheelchair": null, "brand": null, "brand:wikidata": null, "brand:wikipedia": null, "wifi": null, "description": null, "level": null, "drive_through": null, "operator": null, "addr:country": null, "alt_name": null, "atm": null, "email": null, "takeaway": null, "toilets:wheelchair": null }, "geometry": { "type": "Point", "coordinates": [ -93.2363191, 44.9801233 ] } },
{ "type": "Feature", "properties": { "amenity": "cafe", "name": "Turtle Bread", "addr:street": "Chicago Avenue South", "addr:housenumber": "4762", "cuisine": "sandwich", "addr:postcode": "55417", "addr:city": "Minneapolis", "website": "http:\/\/turtlebread.com", "addr:state": "MN", "opening_hours": null, "phone": null, "internet_access": "yes", "outdoor_seating": "yes", "smoking": null, "internet_access:fee": "no", "wheelchair": null, "brand": null, "brand:wikidata": null, "brand:wikipedia": null, "wifi": null, "description": null, "level": null, "drive_through": null, "operator": null, "addr:country": null, "alt_name": null, "atm": null, "email": null, "takeaway": null, "toilets:wheelchair": null }, "geometry": { "type": "Point", "coordinates": [ -93.2628658, 44.9162539 ] } },
{ "type": "Feature", "properties": { "amenity": "cafe", "name": "Twin Cities Leather and Latte", "addr:street": null, "addr:housenumber": null, "cuisine": null, "addr:postcode": null, "addr:city": null, "website": null, "addr:state": null, "opening_hours": null, "phone": null, "internet_access": null, "outdoor_seating": null, "smoking": null, "internet_access:fee": null, "wheelchair": null, "brand": null, "brand:wikidata": null, "brand:wikipedia": null, "wifi": null, "description": null, "level": null, "drive_through": null, "operator": null, "addr:country": null, "alt_name": null, "atm": null, "email": null, "takeaway": null, "toilets:wheelchair": null }, "geometry": { "type": "Point", "coordinates": [ -93.2975859, 44.9531096 ] } },
{ "type": "Feature", "properties": { "amenity": "cafe", "name": "Uncommon Grounds Coffeehouse", "addr:street": "Hennepin Avenue South", "addr:housenumber": "2809", "cuisine": "coffee_shop", "addr:postcode": "55408", "addr:city": "Minneapolis", "website": "http:\/\/www.uncommongroundscoffeehouse.com", "addr:state": "MN", "opening_hours": null, "phone": null, "internet_access": null, "outdoor_seating": null, "smoking": null, "internet_access:fee": null, "wheelchair": null, "brand": null, "brand:wikidata": null, "brand:wikipedia": null, "wifi": null, "description": null, "level": null, "drive_through": null, "operator": null, "addr:country": null, "alt_name": null, "atm": null, "email": null, "takeaway": null, "toilets:wheelchair": null }, "geometry": { "type": "Point", "coordinates": [ -93.2980014, 44.9515347 ] } },
{ "type": "Feature", "properties": { "amenity": "cafe", "name": "Urban Bean", "addr:street": "West Lake Street", "addr:housenumber": "822", "cuisine": "coffee_shop", "addr:postcode": "55408", "addr:city": "Minneapolis", "website": "http:\/\/urbanbeancoffee.com", "addr:state": "MN", "opening_hours": null, "phone": null, "internet_access": null, "outdoor_seating": null, "smoking": null, "internet_access:fee": null, "wheelchair": null, "brand": null, "brand:wikidata": null, "brand:wikipedia": null, "wifi": null, "description": null, "level": null, "drive_through": null, "operator": null, "addr:country": null, "alt_name": null, "atm": null, "email": null, "takeaway": null, "toilets:wheelchair": null }, "geometry": { "type": "Point", "coordinates": [ -93.290483, 44.948512 ] } },
{ "type": "Feature", "properties": { "amenity": "cafe", "name": "Urban Harvest", "addr:street": null, "addr:housenumber": null, "cuisine": "coffee", "addr:postcode": null, "addr:city": null, "website": null, "addr:state": null, "opening_hours": null, "phone": null, "internet_access": null, "outdoor_seating": null, "smoking": null, "internet_access:fee": null, "wheelchair": null, "brand": null, "brand:wikidata": null, "brand:wikipedia": null, "wifi": null, "description": null, "level": null, "drive_through": null, "operator": null, "addr:country": null, "alt_name": null, "atm": null, "email": null, "takeaway": null, "toilets:wheelchair": null }, "geometry": { "type": "Point", "coordinates": [ -93.227393, 45.0062569 ] } },
{ "type": "Feature", "properties": { "amenity": "cafe", "name": "Vicinity Coffee", "addr:street": "Lyndale Avenue South", "addr:housenumber": "3350", "cuisine": "coffee_shop", "addr:postcode": "55408", "addr:city": "Minneapolis", "website": "https:\/\/vicinitycoffee.com\/", "addr:state": "MN", "opening_hours": null, "phone": "612-545-5972", "internet_access": "wlan", "outdoor_seating": null, "smoking": null, "internet_access:fee": "no", "wheelchair": null, "brand": null, "brand:wikidata": null, "brand:wikipedia": null, "wifi": null, "description": "Locally roasted coffee & creative espresso drinks, plus pastries, served in cool, industrial digs.", "level": null, "drive_through": null, "operator": null, "addr:country": null, "alt_name": null, "atm": null, "email": null, "takeaway": null, "toilets:wheelchair": null }, "geometry": { "type": "Point", "coordinates": [ -93.2884271, 44.9414562 ] } },
{ "type": "Feature", "properties": { "amenity": "cafe", "name": "Vicinity Coffee", "addr:street": null, "addr:housenumber": null, "cuisine": "coffee_shop", "addr:postcode": null, "addr:city": null, "website": null, "addr:state": null, "opening_hours": null, "phone": null, "internet_access": null, "outdoor_seating": null, "smoking": null, "internet_access:fee": null, "wheelchair": null, "brand": null, "brand:wikidata": null, "brand:wikipedia": null, "wifi": null, "description": null, "level": null, "drive_through": null, "operator": null, "addr:country": null, "alt_name": null, "atm": null, "email": null, "takeaway": null, "toilets:wheelchair": null }, "geometry": { "type": "Point", "coordinates": [ -93.2776759, 44.9249255 ] } },
{ "type": "Feature", "properties": { "amenity": "cafe", "name": "Wesley Andrews", "addr:street": "East 26th Street", "addr:housenumber": "111", "cuisine": "coffee_shop", "addr:postcode": "55404", "addr:city": "Minneapolis", "website": "https:\/\/www.wesleyandrews.cc\/", "addr:state": "MN", "opening_hours": null, "phone": "612-460-7739", "internet_access": null, "outdoor_seating": null, "smoking": null, "internet_access:fee": null, "wheelchair": null, "brand": null, "brand:wikidata": null, "brand:wikipedia": null, "wifi": null, "description": null, "level": null, "drive_through": null, "operator": null, "addr:country": null, "alt_name": null, "atm": null, "email": null, "takeaway": null, "toilets:wheelchair": null }, "geometry": { "type": "Point", "coordinates": [ -93.2760823, 44.9554003 ] } },
{ "type": "Feature", "properties": { "amenity": "cafe", "name": "Wesley Andrews", "addr:street": "East 26th Street", "addr:housenumber": "111", "cuisine": null, "addr:postcode": "55404", "addr:city": null, "website": "https:\/\/www.wesleyandrews.cc\/", "addr:state": null, "opening_hours": "Mo-Sa 07:00-21:00; Su 13:00-18:00", "phone": "6124607739", "internet_access": "wlan", "outdoor_seating": null, "smoking": null, "internet_access:fee": null, "wheelchair": null, "brand": null, "brand:wikidata": null, "brand:wikipedia": null, "wifi": null, "description": null, "level": null, "drive_through": null, "operator": null, "addr:country": null, "alt_name": null, "atm": null, "email": "info@wesleyandrews.cc", "takeaway": null, "toilets:wheelchair": null }, "geometry": { "type": "Point", "coordinates": [ -93.276098, 44.9554087 ] } },
{ "type": "Feature", "properties": { "amenity": "cafe", "name": "Wilde Cafe & Spirits", "addr:street": "Main Street Southeast", "addr:housenumber": "65", "cuisine": null, "addr:postcode": "55414", "addr:city": null, "website": "http:\/\/wildecafe.com\/", "addr:state": null, "opening_hours": "Su 07:00-21:00; Mo-Th 07:00-22:00; Fr-Sa 07:00-23:00", "phone": "612-331-4544", "internet_access": null, "outdoor_seating": null, "smoking": null, "internet_access:fee": null, "wheelchair": "limited", "brand": null, "brand:wikidata": null, "brand:wikipedia": null, "wifi": "free", "description": null, "level": null, "drive_through": null, "operator": null, "addr:country": null, "alt_name": null, "atm": null, "email": null, "takeaway": null, "toilets:wheelchair": null }, "geometry": { "type": "Point", "coordinates": [ -93.2577184, 44.9857086 ] } },
{ "type": "Feature", "properties": { "amenity": "cafe", "name": "Wise Owl Cafe", "addr:street": null, "addr:housenumber": null, "cuisine": "coffee_shop", "addr:postcode": null, "addr:city": null, "website": "http:\/\/www.dining.umn.edu\/CampusRestaurants\/CoffeeCafes.aspx", "addr:state": null, "opening_hours": "Mo-Th 07:00-20:00; Fr 07:00-16:15", "phone": null, "internet_access": "wlan", "outdoor_seating": null, "smoking": "no", "internet_access:fee": "no", "wheelchair": "yes", "brand": null, "brand:wikidata": null, "brand:wikipedia": null, "wifi": null, "description": null, "level": null, "drive_through": "no", "operator": "University Dining Services", "addr:country": null, "alt_name": null, "atm": null, "email": null, "takeaway": null, "toilets:wheelchair": null }, "geometry": { "type": "Point", "coordinates": [ -93.2362454, 44.9751124 ] } },
{ "type": "Feature", "properties": { "amenity": "cafe", "name": null, "addr:street": null, "addr:housenumber": null, "cuisine": "coffee_shop", "addr:postcode": null, "addr:city": null, "website": null, "addr:state": null, "opening_hours": null, "phone": null, "internet_access": null, "outdoor_seating": null, "smoking": null, "internet_access:fee": null, "wheelchair": null, "brand": null, "brand:wikidata": null, "brand:wikipedia": null, "wifi": null, "description": null, "level": null, "drive_through": null, "operator": "Starbucks", "addr:country": null, "alt_name": null, "atm": null, "email": null, "takeaway": null, "toilets:wheelchair": null }, "geometry": { "type": "Point", "coordinates": [ -93.2764864, 44.9732116 ] } },
{ "type": "Feature", "properties": { "amenity": "cafe", "name": null, "addr:street": null, "addr:housenumber": null, "cuisine": null, "addr:postcode": null, "addr:city": null, "website": null, "addr:state": null, "opening_hours": null, "phone": null, "internet_access": null, "outdoor_seating": null, "smoking": null, "internet_access:fee": null, "wheelchair": null, "brand": null, "brand:wikidata": null, "brand:wikipedia": null, "wifi": null, "description": null, "level": null, "drive_through": null, "operator": null, "addr:country": null, "alt_name": null, "atm": null, "email": null, "takeaway": null, "toilets:wheelchair": null }, "geometry": { "type": "Point", "coordinates": [ -93.2661053, 44.9702226 ] } }
]
}
